INMARSAT 4-F3           
1 33278U 08039A   20230.52849667 -.00000144  00000-0  00000-0 0  9997
2 33278   3.1436  13.1760 0002867 139.6869 265.7584  1.00271607 25238
NIMIQ 4                 
1 33373U 08044A   20230.48256737 -.00000226  00000-0  00000-0 0  9995
2 33373   0.0095  93.0014 0002297  60.1339 264.9008  1.00271477 43627
GALAXY 19 (G-19)        
1 33376U 08045A   20230.52932789 -.00000145  00000-0  00000-0 0  9992
2 33376   0.0159 112.3045 0003172  45.2359 262.3745  1.00271819 43584
ASTRA 1M                
1 33436U 08057A   20230.27410517  .00000114  00000-0  00000+0 0  9998
2 33436   0.0206 126.0290 0005030  16.9319 301.0068  1.00269824 43126
CIEL-2                  
1 33453U 08063A   20230.58368211  .00000052  00000-0  00000-0 0  9993
2 33453   0.0122 150.9207 0002799 349.8467 266.9154  1.00272345 42796
EUTELSAT HOT BIRD 13C   
1 33459U 08065A   20230.35772594  .00000081  00000-0  00000+0 0  9990
2 33459   0.0364  38.4320 0005107  94.8497 334.6649  1.00270820 42891
EUTELSAT 48D            
1 33460U 08065B   20230.43668128  .00000118  00000-0  00000+0 0  9999
2 33460   0.0971 276.8356 0004508 256.7306 357.9674  1.00272062 42757
FENGYUN 2E              
1 33463U 08066A   20230.58794836 -.00000210  00000-0  00000-0 0  9990
2 33463   4.4652  68.3546 0002384 296.7830 259.6173  1.00271597 42737
EXPRESS-AM44            
1 33595U 09007A   20230.33397851 -.00000094  00000-0  00000-0 0  9991
2 33595   0.0227 244.8684 0000468 334.4165 216.1068  1.00272035 42200
NSS-9                   
1 33749U 09008A   20230.55436389  .00000066  00000-0  00000-0 0  9995
2 33749   0.0464 291.0571 0001972 221.1589 196.8118  1.00273022 42179
EUTELSAT 33E            
1 33750U 09008B   20230.29013337  .00000150  00000-0  00000-0 0  9996
2 33750   0.0591 345.7038 0003696 175.0093 302.9655  1.00278256 42090
TELSTAR 11N             
1 34111U 09009A   20230.41958306 -.00000256  00000-0  00000-0 0  9995
2 34111   0.0240 117.9342 0002086   9.0868 312.7400  1.00268301 24882
EUTELSAT 10A            
1 34710U 09016A   20230.32618667  .00000063  00000-0  00000-0 0  9996
2 34710   0.0670  24.9327 0005332 120.0042 308.6331  1.00273357 19900
WGS F2 (USA 204)        
1 34713U 09017A   20230.40396490  .00000042  00000-0  00000-0 0  9993
2 34713   0.0127 113.9615 0001036 270.4200 147.4696  1.00271836 24260
SES-7 (PROTOSTAR 2)     
1 34941U 09027A   20230.52051500 -.00000351  00000-0  00000-0 0  9994
2 34941   0.0131  95.8951 0000728 154.8897  11.2151  1.00272748 41270
MEASAT-3A               
1 35362U 09032A   20230.57739052 -.00000248  00000-0  00000-0 0  9993
2 35362   0.0564 247.9437 0002591 301.9539  75.8764  1.00272782 40896
GOES 14                 
1 35491U 09033A   20230.52343873 -.00000098  00000-0  00000-0 0  9997
2 35491   0.4611  97.5225 0010233 118.1313 194.5792  1.00269977 40768
SIRIUS FM-5             
1 35493U 09034A   20230.48169501 -.00000206  00000-0  00000-0 0  9990
2 35493   0.0064 312.6771 0000496  76.5996  24.3012  1.00271151 25326
TERRESTAR-1             
1 35496U 09035A   20230.59585999 -.00000061  00000-0  00000-0 0  9998
2 35496   2.5617  19.5687 0002761 131.9292 278.4168  1.00272525 40823
ASIASAT 5               
1 35696U 09042A   20230.51894475 -.00000314  00000-0  00000-0 0  9993
2 35696   0.0173 112.0696 0001678  10.0365 131.5493  1.00274041 40339
JCSAT-RA (JCSAT-12)     
1 35755U 09044A   20230.58463101 -.00000038  00000-0  00000-0 0  9999
2 35755   0.0368 123.0724 0001817  20.9304 201.7678  1.00270944 40257
OPTUS D3                
1 35756U 09044B   20230.56624434 -.00000153  00000-0  00000-0 0  9994
2 35756   0.0493 322.2964 0002352 175.3637 188.5826  1.00272395 40209
PALAPA D                
1 35812U 09046A   20229.78171635 -.00000362  00000-0  00000+0 0  9992
2 35812   0.3089  94.6748 0002876  94.9380 170.3814  1.00271164 40319
NIMIQ 5                 
1 35873U 09050A   20230.48439933 -.00000262  00000-0  00000-0 0  9991
2 35873   0.0573 281.5675 0003115 243.1528 263.2777  1.00271437 39991
AMAZONAS 2              
1 35942U 09054A   20230.48675470 -.00000288  00000-0  00000-0 0  9998
2 35942   0.0257 135.4616 0005133   5.8095 299.2640  1.00269783 39824
COMSATBW-1              
1 35943U 09054B   20230.40396490  .00000018  00000-0  00000-0 0  9993
2 35943   0.0735 103.2662 0003132  50.7033  20.7114  1.00273491 39945
NSS-12                  
1 36032U 09058A   20230.40952185  .00000066  00000-0  00000+0 0  9998
2 36032   0.0654 284.5711 0002612 231.4854  14.5949  1.00271536 39567
THOR 6                  
1 36033U 09058B   20230.33008587 -.00000015  00000-0  00000-0 0  9995
2 36033   0.0320 238.4802 0001544 265.3171 300.3583  1.00271038 39655
INTELSAT 14 (IS-14)     
1 36097U 09064A   20230.41810003 -.00000279  00000-0  00000+0 0  9996
2 36097   0.0144 115.0754 0002121  35.1938 281.5071  1.00272378 39347
EUTELSAT 36B            
1 36101U 09065A   20230.29065678  .00000150  00000-0  00000-0 0  9997
2 36101   0.0670  21.7177 0004545 126.9830 317.9473  1.00273491 39371
INTELSAT 15 (IS-15)     
1 36106U 09067A   20230.58035608 -.00000191  00000-0  00000-0 0  9992
2 36106   0.0250 108.3557 0002121  49.3974 102.7231  1.00267808 19947
WGS F3 (USA 211)        
1 36108U 09068A   20230.42472997 -.00000102  00000-0  00000+0 0  9995
2 36108   0.0263 118.8386 0000272 151.8023 196.5196  1.00270113 39168
DIRECTV 12              
1 36131U 09075A   20230.38960236 -.00000108  00000-0  00000-0 0  9999
2 36131   0.0417 269.5029 0000248 105.8848 348.2896  1.00271755 25217
BEIDOU 3                
1 36287U 10001A   20230.52688323 -.00000287  00000-0  00000-0 0  9990
2 36287   1.4896  30.1231 0005323 121.5021 144.7872  1.00267643 38824
RADUGA-1M 2             
1 36358U 10002A   20230.58035608 -.00000190  00000-0  00000-0 0  9991
2 36358   0.0473 253.0055 0002461 271.6820  95.6324  1.00272681 28747
SDO                     
1 36395U 10005A   20230.22132774 -.00000092  00000-0  00000+0 0  9998
2 36395  30.4206 120.2911 0001682   3.0312 180.2080  1.00276536 38678
INTELSAT 16 (IS-16)     
1 36397U 10006A   20230.48370146 -.00000250  00000-0  00000-0 0  9993
2 36397   0.0275 110.3736 0002459  57.2345 256.6412  1.00268562 38479
GOES 15                 
1 36411U 10008A   20230.50638229  .00000046  00000-0  00000-0 0  9996
2 36411   0.0312 133.9070 0001761 326.9918 279.7491  1.00281341 38313
ECHOSTAR 14             
1 36499U 10010A   20230.57148878 -.00000006  00000-0  00000-0 0  9995
2 36499   0.0209 124.1094 0002917  17.4088 271.7262  1.00270738 25206
SES-1                   
1 36516U 10016A   20230.52628081 -.00000120  00000-0  00000-0 0  9992
2 36516   0.0548 286.1608 0002216 222.5377 266.0995  1.00271614 37683
ASTRA 3B                
1 36581U 10021A   20230.32063228  .00000131  00000-0  00000-0 0  9995
2 36581   0.0318  15.3576 0003207 134.0847 315.6189  1.00269706 37524
COMSATBW-2              
1 36582U 10021B   20230.28620775  .00000083  00000-0  00000+0 0  9992
2 36582   0.0315  96.8941 0002365  61.7858 283.6568  1.00271934 37637
BADR-5                  
1 36592U 10025A   20230.31646535  .00000139  00000-0  00000-0 0  9996
2 36592   0.0219 122.9915 0005326  28.6462 314.4312  1.00269237 31868
COMS 1                  
1 36744U 10032A   20230.52444062 -.00000350  00000-0  00000-0 0  9993
2 36744   0.0261  92.6563 0000568  65.2519 125.4027  1.00271641 29737
ARABSAT-5A              
1 36745U 10032B   20230.28960995  .00000148  00000-0  00000-0 0  9999
2 36745   0.0668  51.0702 0005082 106.6796 303.0921  1.00272784 37292
ECHOSTAR 15             
1 36792U 10034A   20230.48658024 -.00000287  00000-0  00000-0 0  9997
2 36792   0.0196 119.9358 0001444  32.1136 287.8058  1.00269640 36971
BEIDOU 5                
1 36828U 10036A   20230.54996832 -.00000114  00000-0  10000-3 0  9991
2 36828  54.1691 182.4229 0101370 235.3744 223.1326  1.00298243 36864
NILESAT 201             
1 36830U 10037A   20230.35388753 -.00000063  00000-0  00000-0 0  9990
2 36830   0.0544 223.0042 0005199 274.4301 309.1414  1.00272175 37000
RASCOM-QAF 1R           
1 36831U 10037B   20230.35589397  .00000013  00000-0  00000+0 0  9991
2 36831   0.0272 107.8877 0005357  36.5971 312.7119  1.00273101 36933
AEHF-1 (USA 214)        
1 36868U 10039A   20230.35615567  .00000019  00000-0  00000+0 0  9998
2 36868   2.8845  96.5933 0004942  22.4671 339.3865  1.00268661 37081
CHINASAT 6A (ZX 6A)     
1 37150U 10042A   20230.64772713 -.00000361  00000-0  00000-0 0  9998
2 37150   0.0556 263.7830 0002784 269.9941 150.8952  1.00266479 36547
QZS-1 (MICHIBIKI-1)     
1 37158U 10045A   20229.63382472 -.00000190  00000-0  00000-0 0  9995
2 37158  41.6768 142.7498 0762219 270.9339 277.9272  1.00257026 36371
XM-5                    
1 37185U 10053A   20230.48186949 -.00000210  00000-0  00000-0 0  9993
2 37185   0.0226 113.0092 0002725 281.7768  19.7896  1.00267649 36135
BSAT-3B                 
1 37207U 10056B   20230.57323392 -.00000357  00000-0  00000-0 0  9998
2 37207   0.0880 296.6657 0000859 319.4312  26.5175  1.00270622 30811
BEIDOU 6                
1 37210U 10057A   20230.62650951 -.00000118  00000-0  00000-0 0  9998
2 37210   0.9138  52.6362 0005437 118.8808 180.5009  1.00271782 35923
SKYTERRA 1              
1 37218U 10061A   20230.52666441 -.00000122  00000-0  00000-0 0  9996
2 37218   2.1360   2.7252 0002844 176.7052 235.1829  1.00271182 35852
ZHONGXING-20A           
1 37234U 10064A   20230.52409167 -.00000357  00000-0  00000-0 0  9997
2 37234   1.0041  96.4365 0002650  41.1959 143.8257  1.00274168 35627
HYLAS 1                 
1 37237U 10065A   20230.53089606 -.00000113  00000-0  00000-0 0  9994
2 37237   0.2693  95.5277 0003477  32.2731 190.1111  1.00271582 35624
INTELSAT 17 (IS-17)     
1 37238U 10065B   20230.44025796 -.00000008  00000-0  00000-0 0  9998
2 37238   0.0170 137.5119 0002974  21.7562  31.4782  1.00272484 32081
